{
  "type": "FeatureCollection",
  "features": [
    {
      "type": "Feature",
      "properties": {
        "norad_id": 29790,
        "name": "FENGYUN 1C DEB",
        "group": "fengyun-1c-debris",
        "lat": -3.3176165641267215,
        "lon": 173.58555552822486,
        "alt_km": 747.1057942605976,
        "timestamp": "2025-12-25T09:48:52.561650+00:00",
        "meta_object_name": "FENGYUN 1C DEB",
        "meta_object_id": "1999-025CG",
        "meta_epoch": "2025-12-24T21:13:51.825504",
        "meta_mean_motion": 14.3228708,
        "meta_eccentricity": 0.00770326,
        "meta_inclination": 99.1479,
        "meta_ra_of_asc_node": 353.568,
        "meta_arg_of_pericenter": 141.4124,
        "meta_mean_anomaly": 219.2598,
        "meta_ephemeris_type": 0,
        "meta_classification_type": "U",
        "meta_norad_cat_id": 29790,
        "meta_element_set_no": 999,
        "meta_rev_at_epoch": 98699,
        "meta_bstar": 0.00026884532,
        "meta_mean_motion_dot": 7.01e-06,
        "meta_mean_motion_ddot": 0,
        "tle_line1": "1 29790U 99025CG  25358.88462761  .00000701  00000+0  26885-3 0  9996",
        "tle_line2": "2 29790  99.1479 353.5680 0077032 141.4124 219.2598 14.32287080986996"
      },
      "geometry": {
        "type": "Point",
        "coordinates": [
          173.58555552822486,
          -3.3176165641267215
        ]
      }
    },
    {
      "type": "Feature",
      "properties": {
        "norad_id": 29791,
        "name": "FENGYUN 1C DEB",
        "group": "fengyun-1c-debris",
        "lat": -38.55111613407363,
        "lon": 173.75852028174467,
        "alt_km": 732.8434279818503,
        "timestamp": "2025-12-25T09:48:52.561660+00:00",
        "meta_object_name": "FENGYUN 1C DEB",
        "meta_object_id": "1999-025CH",
        "meta_epoch": "2025-12-24T21:35:38.495904",
        "meta_mean_motion": 14.58410318,
        "meta_eccentricity": 0.00411459,
        "meta_inclination": 99.0368,
        "meta_ra_of_asc_node": 0.4915,
        "meta_arg_of_pericenter": 25.7573,
        "meta_mean_anomaly": 41.5398,
        "meta_ephemeris_type": 0,
        "meta_classification_type": "U",
        "meta_norad_cat_id": 29791,
        "meta_element_set_no": 999,
        "meta_rev_at_epoch": 99023,
        "meta_bstar": 0.0016639047,
        "meta_mean_motion_dot": 7.755e-05,
        "meta_mean_motion_ddot": 0,
        "tle_line1": "1 29791U 99025CH  25358.89975111  .00007755  00000+0  16639-2 0  9997",
        "tle_line2": "2 29791  99.0368   0.4915 0041145  25.7573  41.5398 14.58410318990236"
      },
      "geometry": {
        "type": "Point",
        "coordinates": [
          173.75852028174467,
          -38.55111613407363
        ]
      }
    },
    {
      "type": "Feature",
      "properties": {
        "norad_id": 29792,
        "name": "FENGYUN 1C DEB",
        "group": "fengyun-1c-debris",
        "lat": 71.976744257135,
        "lon": 21.46727277491044,
        "alt_km": 825.4951369353194,
        "timestamp": "2025-12-25T09:48:52.561670+00:00",
        "meta_object_name": "FENGYUN 1C DEB",
        "meta_object_id": "1999-025CJ",
        "meta_epoch": "2025-12-24T02:55:31.385856",
        "meta_mean_motion": 14.15208882,
        "meta_eccentricity": 0.00475189,
        "meta_inclination": 98.7563,
        "meta_ra_of_asc_node": 48.4783,
        "meta_arg_of_pericenter": 3.0442,
        "meta_mean_anomaly": 357.1012,
        "meta_ephemeris_type": 0,
        "meta_classification_type": "U",
        "meta_norad_cat_id": 29792,
        "meta_element_set_no": 999,
        "meta_rev_at_epoch": 97100,
        "meta_bstar": 0.0013280184,
        "meta_mean_motion_dot": 2.566e-05,
        "meta_mean_motion_ddot": 0,
        "tle_line1": "1 29792U 99025CJ  25358.12189104  .00002566  00000+0  13280-2 0  9997",
        "tle_line2": "2 29792  98.7563  48.4783 0047518   3.0442 357.1012 14.15208882971006"
      },
      "geometry": {
        "type": "Point",
        "coordinates": [
          21.46727277491044,
          71.976744257135
        ]
      }
    },
    {
      "type": "Feature",
      "properties": {
        "norad_id": 29793,
        "name": "FENGYUN 1C DEB",
        "group": "fengyun-1c-debris",
        "lat": 48.56875781562355,
        "lon": 6.703312782951085,
        "alt_km": 988.7291269694324,
        "timestamp": "2025-12-25T09:48:52.561681+00:00",
        "meta_object_name": "FENGYUN 1C DEB",
        "meta_object_id": "1999-025CK",
        "meta_epoch": "2025-12-23T11:02:52.584576",
        "meta_mean_motion": 14.01109143,
        "meta_eccentricity": 0.01435667,
        "meta_inclination": 98.354,
        "meta_ra_of_asc_node": 175.3358,
        "meta_arg_of_pericenter": 307.734,
        "meta_mean_anomaly": 79.8676,
        "meta_ephemeris_type": 0,
        "meta_classification_type": "U",
        "meta_norad_cat_id": 29793,
        "meta_element_set_no": 999,
        "meta_rev_at_epoch": 96299,
        "meta_bstar": 0.0009097424,
        "meta_mean_motion_dot": 1.453e-05,
        "meta_mean_motion_ddot": 0,
        "tle_line1": "1 29793U 99025CK  25357.46033084  .00001453  00000+0  90974-3 0  9999",
        "tle_line2": "2 29793  98.3540 175.3358 0143566 307.7340  79.8676 14.01109143962994"
      },
      "geometry": {
        "type": "Point",
        "coordinates": [
          6.703312782951085,
          48.56875781562355
        ]
      }
    },
    {
      "type": "Feature",
      "properties": {
        "norad_id": 29794,
        "name": "FENGYUN 1C DEB",
        "group": "fengyun-1c-debris",
        "lat": 78.63556793328789,
        "lon": 111.07329933632215,
        "alt_km": 830.129849883182,
        "timestamp": "2025-12-25T09:48:52.561692+00:00",
        "meta_object_name": "FENGYUN 1C DEB",
        "meta_object_id": "1999-025CL",
        "meta_epoch": "2025-12-24T09:49:33.551904",
        "meta_mean_motion": 14.09019403,
        "meta_eccentricity": 0.01566149,
        "meta_inclination": 98.2003,
        "meta_ra_of_asc_node": 156.0068,
        "meta_arg_of_pericenter": 6.9824,
        "meta_mean_anomaly": 46.1947,
        "meta_ephemeris_type": 0,
        "meta_classification_type": "U",
        "meta_norad_cat_id": 29794,
        "meta_element_set_no": 999,
        "meta_rev_at_epoch": 97012,
        "meta_bstar": 0.00046835529,
        "meta_mean_motion_dot": 8.7e-06,
        "meta_mean_motion_ddot": 0,
        "tle_line1": "1 29794U 99025CL  25358.40941611  .00000870  00000+0  46836-3 0  9999",
        "tle_line2": "2 29794  98.2003 156.0068 0156614   6.9824  46.1947 14.09019403970124"
      },
      "geometry": {
        "type": "Point",
        "coordinates": [
          111.07329933632215,
          78.63556793328789
        ]
      }
    },
    {
      "type": "Feature",
      "properties": {
        "norad_id": 29795,
        "name": "FENGYUN 1C DEB",
        "group": "fengyun-1c-debris",
        "lat": 20.20832436434237,
        "lon": -48.44699722614725,
        "alt_km": 905.8708349829931,
        "timestamp": "2025-12-25T09:48:52.561702+00:00",
        "meta_object_name": "FENGYUN 1C DEB",
        "meta_object_id": "1999-025CM",
        "meta_epoch": "2025-12-24T19:59:46.682016",
        "meta_mean_motion": 13.92915318,
        "meta_eccentricity": 0.0111225,
        "meta_inclination": 98.8709,
        "meta_ra_of_asc_node": 127.7057,
        "meta_arg_of_pericenter": 242.788,
        "meta_mean_anomaly": 272.3224,
        "meta_ephemeris_type": 0,
        "meta_classification_type": "U",
        "meta_norad_cat_id": 29795,
        "meta_element_set_no": 999,
        "meta_rev_at_epoch": 96233,
        "meta_bstar": 0.00022846706,
        "meta_mean_motion_dot": 2.69e-06,
        "meta_mean_motion_ddot": 0,
        "tle_line1": "1 29795U 99025CM  25358.83317919  .00000269  00000+0  22847-3 0  9993",
        "tle_line2": "2 29795  98.8709 127.7057 0111225 242.7880 272.3224 13.92915318962334"
      },
      "geometry": {
        "type": "Point",
        "coordinates": [
          -48.44699722614725,
          20.20832436434237
        ]
      }
    },
    {
      "type": "Feature",
      "properties": {
        "norad_id": 29796,
        "name": "FENGYUN 1C DEB",
        "group": "fengyun-1c-debris",
        "lat": -48.94484918724413,
        "lon": 61.463023116777336,
        "alt_km": 850.4007993522018,
        "timestamp": "2025-12-25T09:48:52.561712+00:00",
        "meta_object_name": "FENGYUN 1C DEB",
        "meta_object_id": "1999-025CN",
        "meta_epoch": "2025-12-24T03:45:14.179104",
        "meta_mean_motion": 14.12362507,
        "meta_eccentricity": 0.00524044,
        "meta_inclination": 98.8636,
        "meta_ra_of_asc_node": 49.9037,
        "meta_arg_of_pericenter": 235.311,
        "meta_mean_anomaly": 189.4924,
        "meta_ephemeris_type": 0,
        "meta_classification_type": "U",
        "meta_norad_cat_id": 29796,
        "meta_element_set_no": 999,
        "meta_rev_at_epoch": 97222,
        "meta_bstar": 0.00062242197,
        "meta_mean_motion_dot": 1.118e-05,
        "meta_mean_motion_ddot": 0,
        "tle_line1": "1 29796U 99025CN  25358.15641411  .00001118  00000+0  62242-3 0  9993",
        "tle_line2": "2 29796  98.8636  49.9037 0052404 235.3110 189.4924 14.12362507972227"
      },
      "geometry": {
        "type": "Point",
        "coordinates": [
          61.463023116777336,
          -48.94484918724413
        ]
      }
    }
  ]
}